[{"OBJECT_NAME":"STARLINK-2116","OBJECT_ID":"2021-017C","EPOCH":"2026-03-10T00:00:02.999808","MEAN_MOTION":15.83206556,"ECCENTRICITY":0.00033393,"INCLINATION":53.0386,"RA_OF_ASC_NODE":82.6444,"ARG_OF_PERICENTER":325.049,"MEAN_ANOMALY":111.3473,"EPHEMERIS_TYPE":0,"CLASSIFICATION_TYPE":"U","NORAD_CAT_ID":47724,"ELEMENT_SET_NO":999,"REV_AT_EPOCH":599,"BSTAR":0.0013667213,"MEAN_MOTION_DOT":0.00311123,"MEAN_MOTION_DDOT":0},{"OBJECT_NAME":"OBJECT C","OBJECT_ID":"2024-125C","EPOCH":"2026-03-09T14:14:20.761440","MEAN_MOTION":15.83873438,"ECCENTRICITY":0.0005226,"INCLINATION":97.2296,"RA_OF_ASC_NODE":291.0595,"ARG_OF_PERICENTER":185.1229,"MEAN_ANOMALY":174.9989,"EPHEMERIS_TYPE":0,"CLASSIFICATION_TYPE":"U","NORAD_CAT_ID":60205,"ELEMENT_SET_NO":999,"REV_AT_EPOCH":9451,"BSTAR":0.0010633,"MEAN_MOTION_DOT":0.0024123,"MEAN_MOTION_DDOT":0}]
